[{"OBJECT_NAME":"KL-ALPHA A","OBJECT_ID":"2019-077A","EPOCH":"2026-03-09T22:46:07.227264","MEAN_MOTION":13.56031775,"ECCENTRICITY":0.00124514,"INCLINATION":88.9161,"RA_OF_ASC_NODE":233.4356,"ARG_OF_PERICENTER":45.8977,"MEAN_ANOMALY":314.32,"EPHEMERIS_TYPE":0,"CLASSIFICATION_TYPE":"U","NORAD_CAT_ID":44785,"ELEMENT_SET_NO":999,"REV_AT_EPOCH":31228,"BSTAR":7.2064451e-5,"MEAN_MOTION_DOT":6.3e-7,"MEAN_MOTION_DDOT":0},{"OBJECT_NAME":"COSMOS 1275 DEB","OBJECT_ID":"1981-053PF","EPOCH":"2026-02-27T06:50:28.299264","MEAN_MOTION":13.78459396,"ECCENTRICITY":0.0129079,"INCLINATION":82.7487,"RA_OF_ASC_NODE":263.3142,"ARG_OF_PERICENTER":157.9356,"MEAN_ANOMALY":202.743,"EPHEMERIS_TYPE":0,"CLASSIFICATION_TYPE":"U","NORAD_CAT_ID":42095,"ELEMENT_SET_NO":999,"REV_AT_EPOCH":61445,"BSTAR":0.0012421,"MEAN_MOTION_DOT":1.352e-5,"MEAN_MOTION_DDOT":0}]
